{
  "norad_id": 65574,
  "name": "PRAETORIAN SDA_611",
  "history": [
    {
      "epoch": "2026-04-14T20:09:41.807808Z",
      "apogee_km": 956.8588013690887,
      "perigee_km": 947.5448728426627,
      "latitude_deg": 5.401884115250818e-05,
      "longitude_deg": -75.91571140249097,
      "height_km": 950.8793652299888,
      "semi_major_axis_km": 7330.338837105875,
      "eccentricity": 0.0006353,
      "inclination_deg": 81.2989,
      "raan_deg": 69.5192,
      "arg_perigee_deg": 26.1241,
      "mean_anomaly_deg": 334.0235,
      "mean_motion_rev_day": 13.83300988
    },
    {
      "epoch": "2026-04-15T20:27:52.413408Z",
      "apogee_km": 956.7801154173494,
      "perigee_km": 947.6274519148647,
      "latitude_deg": 3.190498338386321e-05,
      "longitude_deg": -82.39508934757495,
      "height_km": 950.8622033444512,
      "semi_major_axis_km": 7330.340783666107,
      "eccentricity": 0.0006243,
      "inclination_deg": 81.2991,
      "raan_deg": 68.5821,
      "arg_perigee_deg": 23.369,
      "mean_anomaly_deg": 336.7749,
      "mean_motion_rev_day": 13.83300437
    },
    {
      "epoch": "2026-04-16T20:46:03.021600Z",
      "apogee_km": 956.7808899210022,
      "perigee_km": 947.6238299925444,
      "latitude_deg": 1.9616090368354736e-05,
      "longitude_deg": -88.87377664403957,
      "height_km": 950.7886897860369,
      "semi_major_axis_km": 7330.339359956773,
      "eccentricity": 0.0006246,
      "inclination_deg": 81.2997,
      "raan_deg": 67.6457,
      "arg_perigee_deg": 21.0338,
      "mean_anomaly_deg": 339.1074,
      "mean_motion_rev_day": 13.8330084
    },
    {
      "epoch": "2026-04-17T21:04:13.637568Z",
      "apogee_km": 956.7587007848897,
      "perigee_km": 947.6506046745408,
      "latitude_deg": 2.5914646692296728e-05,
      "longitude_deg": -95.35249425973872,
      "height_km": 950.7439556041319,
      "semi_major_axis_km": 7330.341652729715,
      "eccentricity": 0.00062126,
      "inclination_deg": 81.3002,
      "raan_deg": 66.7093,
      "arg_perigee_deg": 18.4095,
      "mean_anomaly_deg": 341.7285,
      "mean_motion_rev_day": 13.83300191
    },
    {
      "epoch": "2026-04-18T14:25:46.939872Z",
      "apogee_km": 956.7346846235878,
      "perigee_km": 947.6773128143714,
      "latitude_deg": 2.6722565024250253e-05,
      "longitude_deg": 2.8769273080196838,
      "height_km": 950.729665879074,
      "semi_major_axis_km": 7330.342998718979,
      "eccentricity": 0.0006178,
      "inclination_deg": 81.3006,
      "raan_deg": 66.0404,
      "arg_perigee_deg": 16.7318,
      "mean_anomaly_deg": 343.4041,
      "mean_motion_rev_day": 13.8329981
    },
    {
      "epoch": "2026-04-19T19:56:25.541088Z",
      "apogee_km": 956.6781449822156,
      "perigee_km": 947.726334702521,
      "latitude_deg": -1.2499428886131272e-05,
      "longitude_deg": -82.1328804204635,
      "height_km": 950.7140779761963,
      "semi_major_axis_km": 7330.339239842368,
      "eccentricity": 0.0006106,
      "inclination_deg": 81.301,
      "raan_deg": 64.9034,
      "arg_perigee_deg": 13.6558,
      "mean_anomaly_deg": 346.4762,
      "mean_motion_rev_day": 13.83300874
    },
    {
      "epoch": "2026-04-20T08:05:30.833952Z",
      "apogee_km": 956.6345192362714,
      "perigee_km": 947.7683283059514,
      "latitude_deg": 4.976787117184319e-08,
      "longitude_deg": 94.62752378124934,
      "height_km": 950.733539349361,
      "semi_major_axis_km": 7330.338423771111,
      "eccentricity": 0.00060476,
      "inclination_deg": 81.3012,
      "raan_deg": 64.4349,
      "arg_perigee_deg": 12.4202,
      "mean_anomaly_deg": 347.7102,
      "mean_motion_rev_day": 13.83301105
    },
    {
      "epoch": "2026-04-21T20:32:46.721184Z",
      "apogee_km": 956.6233454914209,
      "perigee_km": 947.7800249015991,
      "latitude_deg": -6.898844635424818e-06,
      "longitude_deg": -95.09050733226663,
      "height_km": 950.6888213263992,
      "semi_major_axis_km": 7330.33868519651,
      "eccentricity": 0.0006032,
      "inclination_deg": 81.302,
      "raan_deg": 63.0302,
      "arg_perigee_deg": 8.3274,
      "mean_anomaly_deg": 351.7981,
      "mean_motion_rev_day": 13.83301031
    },
    {
      "epoch": "2026-04-22T13:54:20.011392Z",
      "apogee_km": 956.5962807098394,
      "perigee_km": 947.8101349367435,
      "latitude_deg": -6.109372949054404e-05,
      "longitude_deg": 3.138754480942378,
      "height_km": 950.7052297415987,
      "semi_major_axis_km": 7330.340207823291,
      "eccentricity": 0.0005993,
      "inclination_deg": 81.3011,
      "raan_deg": 62.3611,
      "arg_perigee_deg": 6.9959,
      "mean_anomaly_deg": 353.1279,
      "mean_motion_rev_day": 13.833006
    },
    {
      "epoch": "2026-04-23T07:15:53.249760Z",
      "apogee_km": 956.5767437064724,
      "perigee_km": 947.8257858859597,
      "latitude_deg": 4.568694659592281e-06,
      "longitude_deg": 101.36805135346003,
      "height_km": 950.700268078857,
      "semi_major_axis_km": 7330.338264796216,
      "eccentricity": 0.0005969,
      "inclination_deg": 81.2995,
      "raan_deg": 61.6918,
      "arg_perigee_deg": 4.19,
      "mean_anomaly_deg": 355.9305,
      "mean_motion_rev_day": 13.8330115
    },
    {
      "epoch": "2026-04-24T19:43:09.098112Z",
      "apogee_km": 956.5192387474281,
      "perigee_km": 947.8782389784565,
      "latitude_deg": 2.219241680776659e-05,
      "longitude_deg": -88.34971184915268,
      "height_km": 950.7418647770938,
      "semi_major_axis_km": 7330.335738862942,
      "eccentricity": 0.0005894,
      "inclination_deg": 81.3009,
      "raan_deg": 60.2872,
      "arg_perigee_deg": 0.5738,
      "mean_anomaly_deg": 359.5424,
      "mean_motion_rev_day": 13.83301865
    },
    {
      "epoch": "2026-04-25T20:01:19.632000Z",
      "apogee_km": 956.4619406201564,
      "perigee_km": 947.9367594450687,
      "latitude_deg": -1.4714940108352402e-05,
      "longitude_deg": -94.82859458433042,
      "height_km": 950.8028558444345,
      "semi_major_axis_km": 7330.336350032612,
      "eccentricity": 0.0005815,
      "inclination_deg": 81.301,
      "raan_deg": 59.3503,
      "arg_perigee_deg": 358.1172,
      "mean_anomaly_deg": 1.9961,
      "mean_motion_rev_day": 13.83301692
    },
    {
      "epoch": "2026-04-26T20:19:30.145152Z",
      "apogee_km": 956.4576593733609,
      "perigee_km": 947.9335088246162,
      "latitude_deg": -1.2859714066445771e-06,
      "longitude_deg": -101.30768235174524,
      "height_km": 950.8097062141698,
      "semi_major_axis_km": 7330.332584098988,
      "eccentricity": 0.00058143,
      "inclination_deg": 81.3013,
      "raan_deg": 58.4131,
      "arg_perigee_deg": 355.6924,
      "mean_anomaly_deg": 4.4181,
      "mean_motion_rev_day": 13.83302758
    },
    {
      "epoch": "2026-04-27T20:37:40.658304Z",
      "apogee_km": 956.3821597292963,
      "perigee_km": 948.0094535975259,
      "latitude_deg": -4.862911169490115e-06,
      "longitude_deg": -107.785572376822,
      "height_km": 950.9095665215125,
      "semi_major_axis_km": 7330.332806663411,
      "eccentricity": 0.0005711,
      "inclination_deg": 81.3016,
      "raan_deg": 57.4771,
      "arg_perigee_deg": 352.5329,
      "mean_anomaly_deg": 7.5741,
      "mean_motion_rev_day": 13.83302695
    },
    {
      "epoch": "2026-04-28T20:55:51.161088Z",
      "apogee_km": 956.33264793123,
      "perigee_km": 948.0610991883059,
      "latitude_deg": -5.459248180919974e-05,
      "longitude_deg": -114.2640261655722,
      "height_km": 950.995093249347,
      "semi_major_axis_km": 7330.333873559768,
      "eccentricity": 0.0005642,
      "inclination_deg": 81.3018,
      "raan_deg": 56.5405,
      "arg_perigee_deg": 349.5214,
      "mean_anomaly_deg": 10.5823,
      "mean_motion_rev_day": 13.83302393
    },
    {
      "epoch": "2026-04-29T19:29:52.325952Z",
      "apogee_km": 956.2867430289552,
      "perigee_km": 948.1031604380405,
      "latitude_deg": 5.336821518269378e-05,
      "longitude_deg": -94.56515639489686,
      "height_km": 951.064368970367,
      "semi_major_axis_km": 7330.331951733498,
      "eccentricity": 0.0005582,
      "inclination_deg": 81.3026,
      "raan_deg": 55.671,
      "arg_perigee_deg": 347.5689,
      "mean_anomaly_deg": 12.5329,
      "mean_motion_rev_day": 13.83302937
    },
    {
      "epoch": "2026-04-30T07:38:57.579072Z",
      "apogee_km": 956.2900643238163,
      "perigee_km": 948.1017892312893,
      "latitude_deg": 2.9010828659747122e-05,
      "longitude_deg": 82.19580910037736,
      "height_km": 951.0898931807992,
      "semi_major_axis_km": 7330.3329267775525,
      "eccentricity": 0.00055852,
      "inclination_deg": 81.3026,
      "raan_deg": 55.2029,
      "arg_perigee_deg": 345.942,
      "mean_anomaly_deg": 14.158,
      "mean_motion_rev_day": 13.83302661
    },
    {
      "epoch": "2026-05-02T08:15:18.564768Z",
      "apogee_km": 956.2148690795493,
      "perigee_km": 948.1764262980942,
      "latitude_deg": 2.1272800909221616e-05,
      "longitude_deg": 69.23999461171658,
      "height_km": 951.2770150591313,
      "semi_major_axis_km": 7330.332647688821,
      "eccentricity": 0.0005483,
      "inclination_deg": 81.303,
      "raan_deg": 53.3307,
      "arg_perigee_deg": 340.3337,
      "mean_anomaly_deg": 19.7607,
      "mean_motion_rev_day": 13.8330274
    }
  ]
}